NORAD_CAT_ID,OBJECT_NAME,OBJECT_TYPE,EPOCH,MEAN_MOTION,ECCENTRICITY,INCLINATION,RA_OF_ASC_NODE,ARG_OF_PERICENTER,MEAN_ANOMALY,BSTAR,MEAN_MOTION_DOT,MEAN_MOTION_DDOT,TLE_LINE0,TLE_LINE1,TLE_LINE2,SEMIMAJOR_AXIS,PERIOD,APOGEE,PERIGEE,DECAYED
52996.0,STARLINK-4295,PAYLOAD,2023-02-06 14:55:33,15.08852435,0.0001276,53.2151,113.7314,115.5186,244.5938,5.906e-05,6.52e-06,0.0,0 STARLINK-4295,1 52996U 22076L   23037.62191745  .00000652  00000-0  59060-4 0  9995,2 52996  53.2151 113.7314 0001276 115.5186 244.5938 15.08852435 33162,6917.842,95.437,540.59,538.825,0.0
52996.0,STARLINK-4295,PAYLOAD,2023-02-07 11:35:33,15.08856104,0.0001286,53.2161,109.8673,103.5506,256.563,0.00015593,2.196e-05,0.0,0 STARLINK-4295,1 52996U 22076L   23038.48303038  .00002196  00000-0  15593-3 0  9997,2 52996  53.2161 109.8673 0001286 103.5506 256.5630 15.08856104 32822,6917.831,95.437,540.586,538.807,0.0
52996.0,STARLINK-4295,PAYLOAD,2023-02-07 21:07:53,15.08843436,0.0001364,53.2173,108.085,101.1519,258.9627,4.8598e-05,4.86e-06,0.0,0 STARLINK-4295,1 52996U 22076L   23038.88048031  .00000486  00000-0  48598-4 0  9992,2 52996  53.2173 108.0850 0001364 101.1519 258.9627 15.08843436 32880,6917.87,95.437,540.678,538.791,0.0
52996.0,STARLINK-4295,PAYLOAD,2023-02-08 11:26:22,15.08840696,0.0001106,53.2168,105.4072,109.6588,250.4524,-8.1261e-05,-1.581e-05,0.0,0 STARLINK-4295,1 52996U 22076L   23039.47664480 -.00001581  00000-0 -81261-4 0  9993,2 52996  53.2168 105.4072 0001106 109.6588 250.4524 15.08840696 33445,6917.878,95.438,540.508,538.978,0.0
52996.0,STARLINK-4295,PAYLOAD,2023-02-09 11:17:09,15.08845745,9.65e-05,53.2168,100.9462,94.0044,266.1058,-4.4659e-05,-9.99e-06,0.0,0 STARLINK-4295,1 52996U 22076L   23040.47024435 -.00000999  00000-0 -44659-4 0  9997,2 52996  53.2168 100.9462 0000965  94.0044 266.1058 15.08845745 33125,6917.863,95.437,540.395,539.06,0.0
52996.0,STARLINK-4295,PAYLOAD,2023-02-09 20:49:27,15.08848534,8.67e-05,53.2167,99.162,121.421,238.6867,-0.00010595,-1.974e-05,0.0,0 STARLINK-4295,1 52996U 22076L   23040.86768257 -.00001974  00000-0 -10595-3 0  9992,2 52996  53.2167  99.1620 0000867 121.4210 238.6867 15.08848534 33659,6917.854,95.437,540.319,539.12,0.0
52996.0,STARLINK-4295,PAYLOAD,2023-02-10 12:43:19,15.0884181,6.88e-05,53.2165,96.1877,118.4003,241.7058,0.00012259,1.664e-05,0.0,0 STARLINK-4295,1 52996U 22076L   23041.53008725  .00001664  00000-0  12259-3 0  9997,2 52996  53.2165  96.1877 0000688 118.4003 241.7058 15.08841810 33753,6917.875,95.437,540.216,539.264,0.0
52996.0,STARLINK-4295,PAYLOAD,2023-02-10 20:40:15,15.08836551,6.46e-05,53.2159,94.7012,82.5209,277.5857,3.5542e-05,2.78e-06,0.0,0 STARLINK-4295,1 52996U 22076L   23041.86129461  .00000278  00000-0  35542-4 0  9995,2 52996  53.2159  94.7012 0000646  82.5209 277.5857 15.08836551 33338,6917.891,95.438,540.203,539.309,0.0
52996.0,STARLINK-4295,PAYLOAD,2023-02-11 12:34:05,15.08858335,7.64e-05,53.2156,91.727,95.4787,264.6292,0.00024056,3.545e-05,0.0,0 STARLINK-4295,1 52996U 22076L   23042.52367806  .00003545  00000-0  24056-3 0  9993,2 52996  53.2156  91.7270 0000764  95.4787 264.6292 15.08858335 33438,6917.824,95.436,540.218,539.161,0.0
52996.0,STARLINK-4295,PAYLOAD,2023-02-11 20:31:02,15.08841598,8.8e-05,53.2161,90.2414,84.6766,275.4327,5.904e-05,6.52e-06,0.0,0 STARLINK-4295,1 52996U 22076L   23042.85489320  .00000652  00000-0  59040-4 0  9993,2 52996  53.2161  90.2414 0000880  84.6766 275.4327 15.08841598 33481,6917.876,95.437,540.349,539.132,0.0
52996.0,STARLINK-4295,PAYLOAD,2023-02-12 12:24:53,15.08853134,7.76e-05,53.2152,87.2673,83.3655,276.7426,0.00013901,1.926e-05,0.0,0 STARLINK-4295,1 52996U 22076L   23043.51728565  .00001926  00000-0  13901-3 0  9994,2 52996  53.2152  87.2673 0000776  83.3655 276.7426 15.08853134 33585,6917.84,95.437,540.242,539.168,0.0
52996.0,STARLINK-4295,PAYLOAD,2023-02-13 02:43:23,15.08837122,0.0001356,53.2152,84.5924,73.4739,286.6402,-6.1196e-06,-3.85e-06,0.0,0 STARLINK-4295,1 52996U 22076L   23044.11346261 -.00000385  00000-0 -61196-5 0  9991,2 52996  53.2152  84.5924 0001356  73.4739 286.6402 15.08837122 34148,6917.889,95.438,540.692,538.816,0.0
52996.0,STARLINK-4295,PAYLOAD,2023-02-13 12:15:41,15.08852199,0.000116,53.2163,82.8079,81.4899,278.6225,3.8757e-05,3.29e-06,0.0,0 STARLINK-4295,1 52996U 22076L   23044.51089153  .00000329  00000-0  38757-4 0  9991,2 52996  53.2163  82.8079 0001160  81.4899 278.6225 15.08852199 33730,6917.843,95.437,540.511,538.906,0.0
52996.0,STARLINK-4295,PAYLOAD,2023-02-14 02:34:10,15.08834041,0.0001258,53.2163,80.1318,78.292,281.8213,0.00010261,1.345e-05,0.0,0 STARLINK-4295,1 52996U 22076L   23045.10706278  .00001345  00000-0  10261-3 0  9999,2 52996  53.2163  80.1318 0001258  78.2920 281.8213 15.08834041 34295,6917.899,95.438,540.634,538.893,0.0
52996.0,STARLINK-4295,PAYLOAD,2023-02-14 12:06:28,15.08852353,0.0001054,53.2149,78.3463,88.7805,271.3308,0.00020412,2.963e-05,0.0,0 STARLINK-4295,1 52996U 22076L   23045.50449203  .00002963  00000-0  20412-3 0  9991,2 52996  53.2149  78.3463 0001054  88.7805 271.3308 15.08852353 33880,6917.843,95.437,540.437,538.978,0.0
52996.0,STARLINK-4295,PAYLOAD,2023-02-15 07:11:06,15.0883824,0.0001086,53.2152,74.7749,84.9979,275.1137,7.9217e-05,9.73e-06,0.0,0 STARLINK-4295,1 52996U 22076L   23046.29938316  .00000973  00000-0  79217-4 0  9993,2 52996  53.2152  74.7749 0001086  84.9979 275.1137 15.08838240 34473,6917.886,95.438,540.502,538.999,0.0
52996.0,STARLINK-4295,PAYLOAD,2023-02-15 08:46:29,15.08841676,0.0001367,53.2166,74.4807,94.1402,265.9747,0.00011644,1.566e-05,0.0,0 STARLINK-4295,1 52996U 22076L   23046.36561977  .00001566  00000-0  11644-3 0  9994,2 52996  53.2166  74.4807 0001367  94.1402 265.9747 15.08841676 34017,6917.875,95.437,540.686,538.795,0.0
52996.0,STARLINK-4295,PAYLOAD,2023-02-15 18:18:48,15.08835343,0.000174,53.216,72.6952,83.9188,276.2002,-7.109e-05,-1.419e-05,0.0,0 STARLINK-4295,1 52996U 22076L   23046.76306271 -.00001419  00000-0 -71090-4 0  9993,2 52996  53.2160  72.6952 0001740  83.9188 276.2002 15.08835343 34073,6917.895,95.438,540.963,538.556,0.0
52996.0,STARLINK-4295,PAYLOAD,2023-02-16 10:12:39,15.08859909,0.0001363,53.2161,69.723,107.8956,252.2185,0.0008103,0.00012638,0.0,0 STARLINK-4295,1 52996U 22076L   23047.42545301  .00012638  00000-0  81030-3 0  9993,2 52996  53.2161  69.7230 0001363 107.8956 252.2185 15.08859909 34643,6917.82,95.436,540.627,538.742,0.0
52996.0,STARLINK-4295,PAYLOAD,2023-02-16 13:23:25,15.08875013,0.0001189,53.2154,69.1271,100.3017,259.811,0.0018256,0.00028914,0.0,0 STARLINK-4295,1 52996U 22076L   23047.55793196  .00028914  00000-0  18256-2 0  9997,2 52996  53.2154  69.1271 0001189 100.3017 259.8110 15.08875013 34191,6917.773,95.435,540.461,538.816,0.0
52996.0,STARLINK-4295,PAYLOAD,2023-02-16 18:09:35,15.08848284,0.0001175,53.2154,68.2348,68.3169,291.7948,0.00088858,0.00013885,0.0,0 STARLINK-4295,1 52996U 22076L   23047.75665754  .00013885  00000-0  88858-3 0  9994,2 52996  53.2154  68.2348 0001175  68.3169 291.7948 15.08848284 34691,6917.855,95.437,540.533,538.907,0.0
52996.0,STARLINK-4295,PAYLOAD,2023-02-17 10:03:27,15.08827184,0.0001244,53.2151,65.2618,78.0174,282.0958,0.0015833,0.00024991,0.0,0 STARLINK-4295,1 52996U 22076L   23048.41906885  .00024991  00000-0  15833-2 0  9993,2 52996  53.2151  65.2618 0001244  78.0174 282.0958 15.08827184 34797,6917.92,95.438,540.645,538.924,0.0
52996.0,STARLINK-4295,PAYLOAD,2023-02-17 11:38:50,15.08832923,0.0001341,53.2149,64.9641,73.6616,286.4523,0.001666,0.00026321,0.0,0 STARLINK-4295,1 52996U 22076L   23048.48530911  .00026321  00000-0  16660-2 0  9991,2 52996  53.2149  64.9641 0001341  73.6616 286.4523 15.08832923 34339,6917.902,95.438,540.695,538.839,0.0
52996.0,STARLINK-4295,PAYLOAD,2023-02-17 18:00:23,15.08826967,0.0001264,53.2148,63.7746,77.7136,282.3998,0.00088639,0.00013842,0.0,0 STARLINK-4295,1 52996U 22076L   23048.75027295  .00013842  00000-0  88639-3 0  9997,2 52996  53.2148  63.7746 0001264  77.7136 282.3998 15.08826967 34845,6917.92,95.438,540.66,538.911,0.0
52996.0,STARLINK-4295,PAYLOAD,2023-02-18 13:05:01,15.08852957,0.0001468,53.2144,60.2058,80.0356,280.0802,0.0014099,0.0002223,0.0,0 STARLINK-4295,1 52996U 22076L   23049.54515506  .00022230  00000-0  14099-2 0  9991,2 52996  53.2144  60.2058 0001468  80.0356 280.0802 15.08852957 34494,6917.841,95.437,540.721,538.69,0.0
52996.0,STARLINK-4295,PAYLOAD,2023-02-19 09:45:01,15.08865131,0.0001539,53.2146,56.3397,84.5308,275.586,0.00091111,0.00014252,0.0,0 STARLINK-4295,1 52996U 22076L   23050.40626864  .00014252  00000-0  91111-3 0  9994,2 52996  53.2146  56.3397 0001539  84.5308 275.5860 15.08865131 35091,6917.804,95.436,540.733,538.604,0.0
52996.0,STARLINK-4295,PAYLOAD,2023-02-19 17:41:57,15.08848438,0.0002196,53.2157,54.8518,86.4455,273.6788,0.0001627,2.303e-05,0.0,0 STARLINK-4295,1 52996U 22076L   23050.73746977  .00002303  00000-0  16270-3 0  9995,2 52996  53.2157  54.8518 0002196  86.4455 273.6788 15.08848438 35140,6917.855,95.437,541.239,538.2,0.0
52996.0,STARLINK-4295,PAYLOAD,2023-02-20 11:11:11,15.088565,0.0001551,53.2164,51.5801,98.3725,261.7443,0.000653,0.00010124,0.0,0 STARLINK-4295,1 52996U 22076L   23051.46610360  .00010124  00000-0  65300-3 0  9990,2 52996  53.2164  51.5801 0001551  98.3725 261.7443 15.08856500 34787,6917.83,95.437,540.768,538.622,0.0
52996.0,STARLINK-4295,PAYLOAD,2023-02-20 17:32:43,15.08840331,0.0001325,53.2145,50.3894,111.3903,248.7231,-2.0724e-05,-6.18e-06,0.0,0 STARLINK-4295,1 52996U 22076L   23051.73106437 -.00000618  00000-0 -20724-4 0  9996,2 52996  53.2145  50.3894 0001325 111.3903 248.7231 15.08840331 35290,6917.879,95.438,540.661,538.828,0.0
52996.0,STARLINK-4295,PAYLOAD,2023-02-21 11:01:58,15.08858241,0.0001476,53.2154,47.1194,107.7354,252.3799,0.00093184,0.00014581,0.0,0 STARLINK-4295,1 52996U 22076L   23052.45970272  .00014581  00000-0  93184-3 0  9993,2 52996  53.2154  47.1194 0001476 107.7354 252.3799 15.08858241 34932,6917.825,95.436,540.711,538.669,0.0
